{
  "type": "FeatureCollection",
  "features": [
    {
      "type": "Feature",
      "properties": {
        "norad_id": 66809,
        "name": "STARLINK-35979",
        "group": "last-30-days",
        "lat": 8.995988419417989,
        "lon": 56.30081157321047,
        "alt_km": 314.5475471444506,
        "timestamp": "2025-12-13T16:48:31.466665+00:00",
        "meta_object_name": "STARLINK-35979",
        "meta_object_id": "2025-278U",
        "meta_epoch": "2025-12-12T21:58:29.193024",
        "meta_mean_motion": 15.8731954,
        "meta_eccentricity": 0.00031911,
        "meta_inclination": 42.9971,
        "meta_ra_of_asc_node": 250.9246,
        "meta_arg_of_pericenter": 251.8286,
        "meta_mean_anomaly": 108.2241,
        "meta_ephemeris_type": 0,
        "meta_classification_type": "U",
        "meta_norad_cat_id": 66809,
        "meta_element_set_no": 999,
        "meta_rev_at_epoch": 186,
        "meta_bstar": -0.0055466298,
        "meta_mean_motion_dot": -0.01328381,
        "meta_mean_motion_ddot": 0,
        "tle_line1": "1 66809U 25278U   25346.91561566 -.01328381  00000+0 -55466-2 0  9997",
        "tle_line2": "2 66809  42.9971 250.9246 0003191 251.8286 108.2241 15.87319540  1863"
      },
      "geometry": {
        "type": "Point",
        "coordinates": [
          56.30081157321047,
          8.995988419417989
        ]
      }
    },
    {
      "type": "Feature",
      "properties": {
        "norad_id": 66810,
        "name": "STARLINK-36046",
        "group": "last-30-days",
        "lat": 3.8573267639240174,
        "lon": 61.914292181671954,
        "alt_km": 300.88826074393,
        "timestamp": "2025-12-13T16:48:31.466674+00:00",
        "meta_object_name": "STARLINK-36046",
        "meta_object_id": "2025-278V",
        "meta_epoch": "2025-12-12T18:58:25.218624",
        "meta_mean_motion": 15.8940183,
        "meta_eccentricity": 0.0007948,
        "meta_inclination": 42.9969,
        "meta_ra_of_asc_node": 251.7091,
        "meta_arg_of_pericenter": 274.9594,
        "meta_mean_anomaly": 85.0373,
        "meta_ephemeris_type": 0,
        "meta_classification_type": "U",
        "meta_norad_cat_id": 66810,
        "meta_element_set_no": 999,
        "meta_rev_at_epoch": 184,
        "meta_bstar": 0.0023619201,
        "meta_mean_motion_dot": 0.0077805,
        "meta_mean_motion_ddot": 0,
        "tle_line1": "1 66810U 25278V   25346.79056966  .00778050  00000+0  23619-2 0  9992",
        "tle_line2": "2 66810  42.9969 251.7091 0007948 274.9594  85.0373 15.89401830  1843"
      },
      "geometry": {
        "type": "Point",
        "coordinates": [
          61.914292181671954,
          3.8573267639240174
        ]
      }
    },
    {
      "type": "Feature",
      "properties": {
        "norad_id": 66811,
        "name": "STARLINK-36045",
        "group": "last-30-days",
        "lat": 10.598479172140667,
        "lon": 54.503757258888925,
        "alt_km": 310.7415295312121,
        "timestamp": "2025-12-13T16:48:31.466685+00:00",
        "meta_object_name": "STARLINK-36045",
        "meta_object_id": "2025-278W",
        "meta_epoch": "2025-12-12T18:58:22.887552",
        "meta_mean_motion": 15.87256602,
        "meta_eccentricity": 0.000311,
        "meta_inclination": 42.9972,
        "meta_ra_of_asc_node": 251.7084,
        "meta_arg_of_pericenter": 268.0236,
        "meta_mean_anomaly": 92.0281,
        "meta_ephemeris_type": 0,
        "meta_classification_type": "U",
        "meta_norad_cat_id": 66811,
        "meta_element_set_no": 999,
        "meta_rev_at_epoch": 184,
        "meta_bstar": -0.001265214,
        "meta_mean_motion_dot": -0.00331043,
        "meta_mean_motion_ddot": 0,
        "tle_line1": "1 66811U 25278W   25346.79054268 -.00331043  00000+0 -12652-2 0  9990",
        "tle_line2": "2 66811  42.9972 251.7084 0003110 268.0236  92.0281 15.87256602  1843"
      },
      "geometry": {
        "type": "Point",
        "coordinates": [
          54.503757258888925,
          10.598479172140667
        ]
      }
    },
    {
      "type": "Feature",
      "properties": {
        "norad_id": 66812,
        "name": "STARLINK-36054",
        "group": "last-30-days",
        "lat": 8.112836302936312,
        "lon": 57.27928803827678,
        "alt_km": 315.4615160345156,
        "timestamp": "2025-12-13T16:48:31.466695+00:00",
        "meta_object_name": "STARLINK-36054",
        "meta_object_id": "2025-278X",
        "meta_epoch": "2025-12-12T18:56:41.768448",
        "meta_mean_motion": 15.87505229,
        "meta_eccentricity": 0.00034683,
        "meta_inclination": 42.9975,
        "meta_ra_of_asc_node": 251.6981,
        "meta_arg_of_pericenter": 245.0144,
        "meta_mean_anomaly": 115.0369,
        "meta_ephemeris_type": 0,
        "meta_classification_type": "U",
        "meta_norad_cat_id": 66812,
        "meta_element_set_no": 999,
        "meta_rev_at_epoch": 184,
        "meta_bstar": -0.006141601,
        "meta_mean_motion_dot": -0.01463904,
        "meta_mean_motion_ddot": 0,
        "tle_line1": "1 66812U 25278X   25346.78937232 -.01463904  00000+0 -61416-2 0  9996",
        "tle_line2": "2 66812  42.9975 251.6981 0003468 245.0144 115.0369 15.87505229  1846"
      },
      "geometry": {
        "type": "Point",
        "coordinates": [
          57.27928803827678,
          8.112836302936312
        ]
      }
    },
    {
      "type": "Feature",
      "properties": {
        "norad_id": 66813,
        "name": "STARLINK-36042",
        "group": "last-30-days",
        "lat": 6.323284969372869,
        "lon": 59.24326784609231,
        "alt_km": 315.337292577281,
        "timestamp": "2025-12-13T16:48:31.466709+00:00",
        "meta_object_name": "STARLINK-36042",
        "meta_object_id": "2025-278Y",
        "meta_epoch": "2025-12-12T18:56:05.945280",
        "meta_mean_motion": 15.87478608,
        "meta_eccentricity": 0.0003673,
        "meta_inclination": 42.9973,
        "meta_ra_of_asc_node": 251.6955,
        "meta_arg_of_pericenter": 249.8274,
        "meta_mean_anomaly": 110.2205,
        "meta_ephemeris_type": 0,
        "meta_classification_type": "U",
        "meta_norad_cat_id": 66813,
        "meta_element_set_no": 999,
        "meta_rev_at_epoch": 184,
        "meta_bstar": -0.0056511399,
        "meta_mean_motion_dot": -0.01360267,
        "meta_mean_motion_ddot": 0,
        "tle_line1": "1 66813U 25278Y   25346.78895770 -.01360267  00000+0 -56511-2 0  9995",
        "tle_line2": "2 66813  42.9973 251.6955 0003673 249.8274 110.2205 15.87478608  1846"
      },
      "geometry": {
        "type": "Point",
        "coordinates": [
          59.24326784609231,
          6.323284969372869
        ]
      }
    },
    {
      "type": "Feature",
      "properties": {
        "norad_id": 66814,
        "name": "STARLINK-35984",
        "group": "last-30-days",
        "lat": -10.205435226680336,
        "lon": 77.14992761082264,
        "alt_km": 307.2267677586333,
        "timestamp": "2025-12-13T16:48:31.466719+00:00",
        "meta_object_name": "STARLINK-35984",
        "meta_object_id": "2025-278Z",
        "meta_epoch": "2025-12-12T05:17:39.039072",
        "meta_mean_motion": 15.89263924,
        "meta_eccentricity": 0.00022268,
        "meta_inclination": 42.9971,
        "meta_ra_of_asc_node": 255.1754,
        "meta_arg_of_pericenter": 272.7868,
        "meta_mean_anomaly": 87.2751,
        "meta_ephemeris_type": 0,
        "meta_classification_type": "U",
        "meta_norad_cat_id": 66814,
        "meta_element_set_no": 999,
        "meta_rev_at_epoch": 175,
        "meta_bstar": -0.00078876214,
        "meta_mean_motion_dot": -0.00230906,
        "meta_mean_motion_ddot": 0,
        "tle_line1": "1 66814U 25278Z   25346.22059073 -.00230906  00000+0 -78876-3 0  9997",
        "tle_line2": "2 66814  42.9971 255.1754 0002226 272.7868  87.2751 15.89263924  1752"
      },
      "geometry": {
        "type": "Point",
        "coordinates": [
          77.14992761082264,
          -10.205435226680336
        ]
      }
    },
    {
      "type": "Feature",
      "properties": {
        "norad_id": 66815,
        "name": "STARLINK-35985",
        "group": "last-30-days",
        "lat": -13.131602383784498,
        "lon": 80.4981540665242,
        "alt_km": 299.82877959031975,
        "timestamp": "2025-12-13T16:48:31.466731+00:00",
        "meta_object_name": "STARLINK-35985",
        "meta_object_id": "2025-278AA",
        "meta_epoch": "2025-12-12T18:52:41.807136",
        "meta_mean_motion": 15.89981059,
        "meta_eccentricity": 0.00144492,
        "meta_inclination": 42.9985,
        "meta_ra_of_asc_node": 251.6744,
        "meta_arg_of_pericenter": 289.6758,
        "meta_mean_anomaly": 70.2558,
        "meta_ephemeris_type": 0,
        "meta_classification_type": "U",
        "meta_norad_cat_id": 66815,
        "meta_element_set_no": 999,
        "meta_rev_at_epoch": 305,
        "meta_bstar": 0.0028507856,
        "meta_mean_motion_dot": 0.00887373,
        "meta_mean_motion_ddot": 0.00032777577,
        "tle_line1": "1 66815U 25278AA  25346.78659499  .00887373  32778-3  28508-2 0  9998",
        "tle_line2": "2 66815  42.9985 251.6744 0014449 289.6758  70.2558 15.89981059  3051"
      },
      "geometry": {
        "type": "Point",
        "coordinates": [
          80.4981540665242,
          -13.131602383784498
        ]
      }
    }
  ]
}